OBJECT_NAME,OBJECT_ID,EPOCH,MEAN_MOTION,ECCENTRICITY,INCLINATION,RA_OF_ASC_NODE,ARG_OF_PERICENTER,MEAN_ANOMALY,EPHEMERIS_TYPE,CLASSIFICATION_TYPE,NORAD_CAT_ID,ELEMENT_SET_NO,REV_AT_EPOCH,BSTAR,MEAN_MOTION_DOT,MEAN_MOTION_DDOT
IONOSFERA-M 4,2025-155B,2026-07-16T05:02:53.140128,14.21493307,.0001835,98.6040,158.3045,98.5867,261.5519,0,U,64877,999,5052,.20746E-4,.3E-7,0
MICROCARB,2025-156A,2026-07-16T03:53:06.610848,14.72885650,.0017693,98.0075,273.8504,167.7282,192.4360,0,U,64899,999,5223,.4605E-4,.245E-5,0
CO3D 3,2025-156B,2026-07-16T05:10:18.056064,15.20196146,.0001755,97.4335,275.4913,93.8998,266.2438,0,U,64900,999,5394,.98983E-4,.2075E-4,0
CO3D 4,2025-156C,2026-07-16T03:35:43.871712,15.20190739,.0001693,97.4336,275.4263,152.3780,207.7546,0,U,64901,999,5393,.32892E-4,.644E-5,0
CO3D 2,2025-156D,2026-07-16T04:22:30.020160,15.20205551,.0001246,97.4335,275.3573,90.4662,269.6716,0,U,64902,999,5393,.98055E-4,.2056E-4,0
CO3D 1,2025-156E,2026-07-16T04:22:43.306752,15.20205761,.0001327,97.4336,275.3574,101.0505,259.0879,0,U,64903,999,5393,.10405E-3,.2186E-4,0
PRSC-S1,2025-164A,2026-07-16T04:01:16.623264,15.06639280,.0006845,41.1301,124.5675,204.1768,155.8725,0,U,65055,999,5280,.14876E-3,.2067E-4,0
SENTINEL-6B,2025-264A,2026-07-16T01:14:53.049696,12.80930161,.0007847,66.0412,75.2271,268.7058,91.3058,0,U,66514,999,3086,.90619E-4,-.4E-6,0
CAS500-3,2025-274F,2026-07-15T18:54:30.627936,14.88384758,.00062091,97.7437,124.1886,36.7609,323.4033,0,U,66655,999,3440,.69727582E-4,.592E-5,0
CSG-3,2026-001A,2026-07-13T12:40:32.844288,14.82151371,.00015181,97.8894,17.7492,93.3222,266.8165,0,U,67304,999,2836,.2348529E-4,.135E-5,0
PRSC-E03,2026-092A,2026-07-16T05:10:09.538752,15.06811662,.0004973,38.0011,278.4894,257.4162,102.6044,0,U,68835,999,1233,.82482E-4,.1142E-4,0
CAS500-2,2026-100AK,2026-07-15T15:26:00.622464,15.20905560,.00077746,97.3865,93.9580,289.9986,70.0412,0,U,69013,999,1113,.15518548E-3,.3365E-4,0
